NORAD_CAT_ID,OBJECT_NAME,OBJECT_TYPE,EPOCH,MEAN_MOTION,ECCENTRICITY,INCLINATION,RA_OF_ASC_NODE,ARG_OF_PERICENTER,MEAN_ANOMALY,BSTAR,MEAN_MOTION_DOT,MEAN_MOTION_DDOT,TLE_LINE0,TLE_LINE1,TLE_LINE2,SEMIMAJOR_AXIS,PERIOD,APOGEE,PERIGEE,DECAYED
50849.0,STARLINK-3311,PAYLOAD,2023-05-13 05:52:10,15.08830325,0.0001459,53.2153,129.4541,107.5193,252.5959,0.00085894,0.00013405,0.0,0 STARLINK-3311,1 50849U 22001AY  23133.24456133  .00013405  00000-0  85894-3 0  9991,2 50849  53.2153 129.4541 0001459 107.5193 252.5959 15.08830325 75754,6917.91,95.438,540.784,538.766,0.0
50849.0,STARLINK-3311,PAYLOAD,2023-05-13 07:27:32,15.0884835,0.000149,53.2152,129.1563,101.3445,258.7714,0.00043948,6.715e-05,0.0,0 STARLINK-3311,1 50849U 22001AY  23133.31078995  .00006715  00000-0  43948-3 0  9995,2 50849  53.2152 129.1563 0001490 101.3445 258.7714 15.08848350 75766,6917.855,95.437,540.751,538.689,0.0
50849.0,STARLINK-3311,PAYLOAD,2023-05-13 16:59:50,15.08851694,0.0001466,53.2149,127.3717,101.0426,259.0731,0.00036776,5.572e-05,0.0,0 STARLINK-3311,1 50849U 22001AY  23133.70822708  .00005572  00000-0  36776-3 0  9998,2 50849  53.2149 127.3717 0001466 101.0426 259.0731 15.08851694 74624,6917.845,95.437,540.724,538.695,0.0
50849.0,STARLINK-3311,PAYLOAD,2023-05-14 05:42:55,15.08858523,0.0001483,53.215,124.9928,101.1523,258.9636,0.00035119,5.308e-05,0.0,0 STARLINK-3311,1 50849U 22001AY  23134.23814083  .00005308  00000-0  35119-3 0  9991,2 50849  53.2150 124.9928 0001483 101.1523 258.9636 15.08858523 74700,6917.824,95.436,540.715,538.663,0.0
50849.0,STARLINK-3311,PAYLOAD,2023-05-14 16:50:37,15.08853316,0.0001427,53.2146,122.9109,100.3197,259.7956,0.00014685,2.051e-05,0.0,0 STARLINK-3311,1 50849U 22001AY  23134.70181815  .00002051  00000-0  14685-3 0  9990,2 50849  53.2146 122.9109 0001427 100.3197 259.7956 15.08853316 74776,6917.84,95.437,540.692,538.718,0.0
50849.0,STARLINK-3311,PAYLOAD,2023-05-14 23:12:09,15.08850403,0.0001473,53.215,121.7214,101.0876,259.0282,6.0278e-05,6.72e-06,0.0,0 STARLINK-3311,1 50849U 22001AY  23134.96677767  .00000672  00000-0  60278-4 0  9991,2 50849  53.2150 121.7214 0001473 101.0876 259.0282 15.08850403 76016,6917.849,95.437,540.733,538.695,0.0
50849.0,STARLINK-3311,PAYLOAD,2023-05-15 05:33:42,15.08849769,0.0001435,53.2152,120.533,96.6914,263.4241,3.3104e-05,2.39e-06,0.0,0 STARLINK-3311,1 50849U 22001AY  23135.23173680  .00000239  00000-0  33104-4 0  9994,2 50849  53.2152 120.5330 0001435  96.6914 263.4241 15.08849769 74851,6917.851,95.437,540.708,538.723,0.0
50849.0,STARLINK-3311,PAYLOAD,2023-05-16 05:24:29,15.08842499,0.0001424,53.2161,116.0747,90.9562,269.1593,-2.4972e-05,-6.85e-06,0.0,0 STARLINK-3311,1 50849U 22001AY  23136.22533872 -.00000685  00000-0 -24972-4 0  9997,2 50849  53.2161 116.0747 0001424  90.9562 269.1593 15.08842499 76204,6917.873,95.437,540.723,538.753,0.0
50849.0,STARLINK-3311,PAYLOAD,2023-05-16 08:35:15,15.08844527,0.0001431,53.2159,115.4793,91.1299,268.9857,-1.1504e-05,-4.71e-06,0.0,0 STARLINK-3311,1 50849U 22001AY  23136.35781639 -.00000471  00000-0 -11504-4 0  9997,2 50849  53.2159 115.4793 0001431  91.1299 268.9857 15.08844527 75026,6917.867,95.437,540.721,538.742,0.0
50849.0,STARLINK-3311,PAYLOAD,2023-05-17 08:26:01,15.08846206,0.0001405,53.2162,111.0179,89.2969,270.8184,5.0074e-05,5.09e-06,0.0,0 STARLINK-3311,1 50849U 22001AY  23137.35141049  .00000509  00000-0  50074-4 0  9998,2 50849  53.2162 111.0179 0001405  89.2969 270.8184 15.08846206 76373,6917.861,95.437,540.698,538.754,0.0
50849.0,STARLINK-3311,PAYLOAD,2023-05-18 01:55:17,15.08835497,0.0001501,53.217,107.7463,98.3432,261.7731,2.5958e-05,1.25e-06,0.0,0 STARLINK-3311,1 50849U 22001AY  23138.08005864  .00000125  00000-0  25958-4 0  9990,2 50849  53.2170 107.7463 0001501  98.3432 261.7731 15.08835497 76482,6917.894,95.438,540.798,538.721,0.0
50849.0,STARLINK-3311,PAYLOAD,2023-05-18 08:16:49,15.08839485,0.0001372,53.2167,106.5569,89.7932,270.3217,5.8264e-05,6.39e-06,0.0,0 STARLINK-3311,1 50849U 22001AY  23138.34501556  .00000639  00000-0  58264-4 0  9994,2 50849  53.2167 106.5569 0001372  89.7932 270.3217 15.08839485 75325,6917.882,95.438,540.696,538.798,0.0
50849.0,STARLINK-3311,PAYLOAD,2023-05-19 03:21:27,15.08841942,0.0001411,53.2168,102.9886,107.0132,253.1015,8.5903e-07,-2.74e-06,0.0,0 STARLINK-3311,1 50849U 22001AY  23139.13989691 -.00000274  00000-0  85903-6 0  9990,2 50849  53.2168 102.9886 0001411 107.0132 253.1015 15.08841942 76640,6917.874,95.437,540.716,538.763,0.0
50849.0,STARLINK-3311,PAYLOAD,2023-05-19 06:32:13,15.08839887,0.0001429,53.2169,102.3938,91.4467,268.6689,-1.3881e-05,-5.09e-06,0.0,0 STARLINK-3311,1 50849U 22001AY  23139.27237930 -.00000509  00000-0 -13881-4 0  9993,2 50849  53.2169 102.3938 0001429  91.4467 268.6689 15.08839887 75461,6917.881,95.438,540.734,538.757,0.0
50849.0,STARLINK-3311,PAYLOAD,2023-05-20 04:47:36,15.08861603,0.0001425,53.2172,98.2306,102.626,257.4892,-0.00013082,-2.371e-05,0.0,0 STARLINK-3311,1 50849U 22001AY  23140.19973108 -.00002371  00000-0 -13082-3 0  9991,2 50849  53.2172  98.2306 0001425 102.6260 257.4892 15.08861603 76801,6917.814,95.436,540.665,538.694,0.0
50849.0,STARLINK-3311,PAYLOAD,2023-05-20 15:55:18,15.08843797,0.0001524,53.2174,96.1495,96.4893,263.6272,9.6863e-05,1.254e-05,0.0,0 STARLINK-3311,1 50849U 22001AY  23140.66341413  .00001254  00000-0  96863-4 0  9997,2 50849  53.2174  96.1495 0001524  96.4893 263.6272 15.08843797 76873,6917.869,95.437,540.788,538.679,0.0
50849.0,STARLINK-3311,PAYLOAD,2023-05-21 06:13:46,15.08850648,0.0001487,53.2168,93.4701,99.5201,260.596,0.00013997,1.941e-05,0.0,0 STARLINK-3311,1 50849U 22001AY  23141.25956659  .00001941  00000-0  13997-3 0  9996,2 50849  53.2168  93.4701 0001487  99.5201 260.5960 15.08850648 75761,6917.848,95.437,540.742,538.684,0.0
50849.0,STARLINK-3311,PAYLOAD,2023-05-21 20:32:16,15.08832806,0.0001679,53.2175,90.7964,89.6026,270.5159,-9.8237e-05,-1.851e-05,0.0,0 STARLINK-3311,1 50849U 22001AY  23141.85574829 -.00001851  00000-0 -98237-4 0  9990,2 50849  53.2175  90.7964 0001679  89.6026 270.5159 15.08832806 75855,6917.902,95.438,540.929,538.606,0.0
50849.0,STARLINK-3311,PAYLOAD,2023-05-22 02:53:49,15.08831482,0.0001559,53.2174,89.607,88.168,271.9491,-0.00010197,-1.91e-05,0.0,0 STARLINK-3311,1 50849U 22001AY  23142.12071014 -.00001910  00000-0 -10197-3 0  9993,2 50849  53.2174  89.6070 0001559  88.1680 271.9491 15.08831482 77097,6917.906,95.438,540.85,538.693,0.0
50849.0,STARLINK-3311,PAYLOAD,2023-05-22 06:04:35,15.08832438,0.0001533,53.2173,89.0114,90.7974,269.3194,-8.3903e-05,-1.623e-05,0.0,0 STARLINK-3311,1 50849U 22001AY  23142.25318986 -.00001623  00000-0 -83903-4 0  9996,2 50849  53.2173  89.0114 0001533  90.7974 269.3194 15.08832438 75918,6917.904,95.438,540.829,538.708,0.0
50849.0,STARLINK-3311,PAYLOAD,2023-05-23 02:44:35,15.0885022,0.0001442,53.2173,85.1467,84.2531,275.8626,0.0001167,1.57e-05,0.0,0 STARLINK-3311,1 50849U 22001AY  23143.11429455  .00001570  00000-0  11670-3 0  9996,2 50849  53.2173  85.1467 0001442  84.2531 275.8626 15.08850220 77241,6917.849,95.437,540.712,538.717,0.0
50849.0,STARLINK-3311,PAYLOAD,2023-05-23 05:55:21,15.08856505,0.0001417,53.218,84.5514,86.0345,274.0809,0.00010325,1.356e-05,0.0,0 STARLINK-3311,1 50849U 22001AY  23143.24677094  .00001356  00000-0  10325-3 0  9992,2 50849  53.2180  84.5514 0001417  86.0345 274.0809 15.08856505 76065,6917.83,95.437,540.675,538.715,0.0
50849.0,STARLINK-3311,PAYLOAD,2023-05-24 00:59:59,15.08841504,0.0001478,53.2181,80.9839,79.2098,280.906,0.00024539,3.62e-05,0.0,0 STARLINK-3311,1 50849U 22001AY  23144.04166520  .00003620  00000-0  24539-3 0  9996,2 50849  53.2181  80.9839 0001478  79.2098 280.9060 15.08841504 77386,6917.876,95.437,540.763,538.718,0.0
50849.0,STARLINK-3311,PAYLOAD,2023-05-24 02:35:22,15.08843445,0.0001514,53.2177,80.6864,81.2928,278.8236,0.00027639,4.114e-05,0.0,0 STARLINK-3311,1 50849U 22001AY  23144.10790449  .00004114  00000-0  27639-3 0  9999,2 50849  53.2177  80.6864 0001514  81.2928 278.8236 15.08843445 76197,6917.87,95.437,540.782,538.687,0.0
50849.0,STARLINK-3311,PAYLOAD,2023-05-25 18:20:01,15.08837868,0.0001479,53.2177,73.2542,85.219,274.8972,6.2586e-05,7.08e-06,0.0,0 STARLINK-3311,1 50849U 22001AY  23145.76390767  .00000708  00000-0  62586-4 0  9997,2 50849  53.2177  73.2542 0001479  85.2190 274.8972 15.08837868 77649,6917.887,95.438,540.775,538.729,0.0
50849.0,STARLINK-3311,PAYLOAD,2023-05-26 02:16:57,15.08841721,0.0001449,53.2182,71.7678,90.3092,269.8066,7.0052e-05,8.27e-06,0.0,0 STARLINK-3311,1 50849U 22001AY  23146.09510507  .00000827  00000-0  70052-4 0  9999,2 50849  53.2182  71.7678 0001449  90.3092 269.8066 15.08841721 76496,6917.875,95.437,540.743,538.738,0.0
50849.0,STARLINK-3311,PAYLOAD,2023-05-27 03:43:07,15.08833474,0.0001494,53.2182,67.0104,86.868,273.2483,0.00011927,1.61e-05,0.0,0 STARLINK-3311,1 50849U 22001AY  23147.15495211  .00001610  00000-0  11927-3 0  9997,2 50849  53.2182  67.0104 0001494  86.8680 273.2483 15.08833474 77850,6917.9,95.438,540.799,538.732,0.0
50849.0,STARLINK-3311,PAYLOAD,2023-05-27 05:18:30,15.08849349,0.00015,53.218,66.7127,84.0205,276.0958,-5.5923e-05,-1.178e-05,0.0,0 STARLINK-3311,1 50849U 22001AY  23147.22118555 -.00001178  00000-0 -55923-4 0  9994,2 50849  53.2180  66.7127 0001500  84.0205 276.0958 15.08849349 77867,6917.852,95.437,540.754,538.679,0.0
50849.0,STARLINK-3311,PAYLOAD,2023-05-27 11:40:03,15.08839539,0.0001493,53.2183,65.5217,85.989,274.1273,3.6027e-05,2.85e-06,0.0,0 STARLINK-3311,1 50849U 22001AY  23147.48615066  .00000285  00000-0  36027-4 0  9991,2 50849  53.2183  65.5217 0001493  85.9890 274.1273 15.08839539 77902,6917.882,95.438,540.78,538.714,0.0
50849.0,STARLINK-3311,PAYLOAD,2023-05-27 22:47:45,15.08840077,0.0001433,53.2179,63.4401,90.6174,269.4982,3.6635e-05,2.95e-06,0.0,0 STARLINK-3311,1 50849U 22001AY  23147.94983093  .00000295  00000-0  36635-4 0  9996,2 50849  53.2179  63.4401 0001433  90.6174 269.4982 15.08840077 76778,6917.88,95.438,540.736,538.754,0.0
